BRO-5                   
1 51061U 22002CF  26195.91525865  .00019491  00000+0  36299-3 0  9998
2 51061  97.2991 269.8573 0005352 204.6016 155.4980 15.48870710250545
BRO-6                   
1 52422U 22047AE  26195.99927215  .00027408  00000+0  44726-3 0  9993
2 52422  97.3395 287.6272 0002820 312.0170  48.0843 15.52557218235461
BRO-8                   
1 55011U 23001C   26195.93893341  .00021136  00000+0  36847-3 0  9994
2 55011  97.3189 261.5538 0004893  40.9799 319.1820 15.50740373196503
BRO-11                  
1 58264U 23174J   26195.95767432  .00002939  00000+0  11152-3 0  9993
2 58264  97.3900 272.5494 0011984 108.3780 251.8763 15.27589884148998
BRO-13                  
1 59107U 24043K   26195.90550977  .00000868  00000+0  81378-4 0  9992
2 59107  97.8525 327.0172 0007453 263.3548  96.6825 14.96650325128763
BRO-12                  
1 59108U 24043L   26195.96394745  .00000543  00000+0  52539-4 0  9995
2 59108  97.8508 327.2451 0007049 257.0182 103.0253 14.96892797128794
BRO-14                  
1 60551U 24149CM  26195.74870392  .00000878  00000+0  82853-4 0  9992
2 60551  97.6864 271.0310 0006762  19.2732 340.8744 14.96235048104117
BRO-15                  
1 60553U 24149CP  26195.73138440  .00000231  00000+0  25505-4 0  9998
2 60553  97.6792 270.5901 0007828   5.9405 354.1908 14.96221395104123
BRO-16                  
1 62654U 25009AX  26195.78621202  .00001979  00000+0  84323-4 0  9999
2 62654  97.4059 275.9327 0002101 154.9606 205.1733 15.24127052 83000
BRO-18                  
1 64550U 25135Y   26195.92863015  .00002674  00000+0  11962-3 0  9993
2 64550  97.4656 310.7483 0002475 116.3365 243.8126 15.22172654 59092
BRO-17                  
1 66672U 25276G   26195.73474070  .00001960  00000+0  99232-4 0  9998
2 66672  97.4184 268.3115 0005095 261.4212  98.6445 15.18156225 34576
BRO-20                  
1 66674U 25276J   26195.90852108  .00001542  00000+0  78411-4 0  9993
2 66674  97.4162 268.4700 0004706 264.5290  95.5408 15.18324102 34603
BRO-19                  
1 68422U 26067G   26195.85030791  .00001741  00000+0  86470-4 0  9990
2 68422  97.4493 153.9148 0002576 108.3967 251.7548 15.18986318 16149
BRO-21                  
1 69007U 26100AD  26195.68071394  .00001324  00000+0  61668-4 0  9992
2 69007  97.4012  93.1243 0006799 331.1353  28.9506 15.21620582 10989
BRO-22                  
1 69504U 26132C   26195.44042710  .00000689  00000+0  60383-4 0  9999
2 69504  97.6830 258.7710 0016540 183.6595 176.4510 14.99803811  4868
