{"fetched_at":"2026-07-15T06:35:53.661Z","source":"https://celestrak.org/NORAD/elements/gp.php?NAME=BRO&FORMAT=JSON","constellation":"unseenlabs","records":[{"OBJECT_NAME":"BRO-5","OBJECT_ID":"2022-002CF","EPOCH":"2026-07-14T21:57:58.347360","CLASSIFICATION_TYPE":"U","MEAN_MOTION":15.4887071,"ECCENTRICITY":0.00053525,"INCLINATION":97.2991,"RA_OF_ASC_NODE":269.8573,"ARG_OF_PERICENTER":204.6016,"MEAN_ANOMALY":155.498,"EPHEMERIS_TYPE":0,"NORAD_CAT_ID":51061,"ELEMENT_SET_NO":999,"REV_AT_EPOCH":25054,"BSTAR":0.00036298627,"MEAN_MOTION_DOT":0.00019491,"MEAN_MOTION_DDOT":0},{"OBJECT_NAME":"BRO-6","OBJECT_ID":"2022-047AE","EPOCH":"2026-07-14T23:58:57.113760","CLASSIFICATION_TYPE":"U","MEAN_MOTION":15.52557218,"ECCENTRICITY":0.00028205,"INCLINATION":97.3395,"RA_OF_ASC_NODE":287.6272,"ARG_OF_PERICENTER":312.017,"MEAN_ANOMALY":48.0843,"EPHEMERIS_TYPE":0,"NORAD_CAT_ID":52422,"ELEMENT_SET_NO":999,"REV_AT_EPOCH":23546,"BSTAR":0.00044725986,"MEAN_MOTION_DOT":0.00027408,"MEAN_MOTION_DDOT":0},{"OBJECT_NAME":"BRO-8","OBJECT_ID":"2023-001C","EPOCH":"2026-07-14T22:32:03.846624","CLASSIFICATION_TYPE":"U","MEAN_MOTION":15.50740373,"ECCENTRICITY":0.00048939,"INCLINATION":97.3189,"RA_OF_ASC_NODE":261.5538,"ARG_OF_PERICENTER":40.9799,"MEAN_ANOMALY":319.182,"EPHEMERIS_TYPE":0,"NORAD_CAT_ID":55011,"ELEMENT_SET_NO":999,"REV_AT_EPOCH":19650,"BSTAR":0.00036846914,"MEAN_MOTION_DOT":0.00021136,"MEAN_MOTION_DDOT":0},{"OBJECT_NAME":"BRO-11","OBJECT_ID":"2023-174J","EPOCH":"2026-07-14T22:59:03.061248","CLASSIFICATION_TYPE":"U","MEAN_MOTION":15.27589884,"ECCENTRICITY":0.00119844,"INCLINATION":97.39,"RA_OF_ASC_NODE":272.5494,"ARG_OF_PERICENTER":108.378,"MEAN_ANOMALY":251.8763,"EPHEMERIS_TYPE":0,"NORAD_CAT_ID":58264,"ELEMENT_SET_NO":999,"REV_AT_EPOCH":14899,"BSTAR":0.00011152029,"MEAN_MOTION_DOT":0.00002939,"MEAN_MOTION_DDOT":0},{"OBJECT_NAME":"BRO-13","OBJECT_ID":"2024-043K","EPOCH":"2026-07-14T21:43:56.044128","CLASSIFICATION_TYPE":"U","MEAN_MOTION":14.96650325,"ECCENTRICITY":0.00074531,"INCLINATION":97.8525,"RA_OF_ASC_NODE":327.0172,"ARG_OF_PERICENTER":263.3548,"MEAN_ANOMALY":96.6825,"EPHEMERIS_TYPE":0,"NORAD_CAT_ID":59107,"ELEMENT_SET_NO":999,"REV_AT_EPOCH":12876,"BSTAR":0.000081377792,"MEAN_MOTION_DOT":0.00000868,"MEAN_MOTION_DDOT":0},{"OBJECT_NAME":"BRO-12","OBJECT_ID":"2024-043L","EPOCH":"2026-07-14T23:08:05.059680","CLASSIFICATION_TYPE":"U","MEAN_MOTION":14.96892797,"ECCENTRICITY":0.00070498,"INCLINATION":97.8508,"RA_OF_ASC_NODE":327.2451,"ARG_OF_PERICENTER":257.0182,"MEAN_ANOMALY":103.0253,"EPHEMERIS_TYPE":0,"NORAD_CAT_ID":59108,"ELEMENT_SET_NO":999,"REV_AT_EPOCH":12879,"BSTAR":0.000052539392,"MEAN_MOTION_DOT":0.00000543,"MEAN_MOTION_DDOT":0},{"OBJECT_NAME":"BRO-14","OBJECT_ID":"2024-149CM","EPOCH":"2026-07-14T17:58:08.018688","CLASSIFICATION_TYPE":"U","MEAN_MOTION":14.96235048,"ECCENTRICITY":0.00067621,"INCLINATION":97.6864,"RA_OF_ASC_NODE":271.031,"ARG_OF_PERICENTER":19.2732,"MEAN_ANOMALY":340.8744,"EPHEMERIS_TYPE":0,"NORAD_CAT_ID":60551,"ELEMENT_SET_NO":999,"REV_AT_EPOCH":10411,"BSTAR":0.000082852733,"MEAN_MOTION_DOT":0.00000878,"MEAN_MOTION_DDOT":0},{"OBJECT_NAME":"BRO-15","OBJECT_ID":"2024-149CP","EPOCH":"2026-07-14T17:33:11.612160","CLASSIFICATION_TYPE":"U","MEAN_MOTION":14.96221395,"ECCENTRICITY":0.0007828,"INCLINATION":97.6792,"RA_OF_ASC_NODE":270.5901,"ARG_OF_PERICENTER":5.9405,"MEAN_ANOMALY":354.1908,"EPHEMERIS_TYPE":0,"NORAD_CAT_ID":60553,"ELEMENT_SET_NO":999,"REV_AT_EPOCH":10412,"BSTAR":0.000025505437,"MEAN_MOTION_DOT":0.00000231,"MEAN_MOTION_DDOT":0},{"OBJECT_NAME":"BRO-16","OBJECT_ID":"2025-009AX","EPOCH":"2026-07-14T18:52:08.718528","CLASSIFICATION_TYPE":"U","MEAN_MOTION":15.24127052,"ECCENTRICITY":0.00021017,"INCLINATION":97.4059,"RA_OF_ASC_NODE":275.9327,"ARG_OF_PERICENTER":154.9606,"MEAN_ANOMALY":205.1733,"EPHEMERIS_TYPE":0,"NORAD_CAT_ID":62654,"ELEMENT_SET_NO":999,"REV_AT_EPOCH":8300,"BSTAR":0.000084322898,"MEAN_MOTION_DOT":0.00001979,"MEAN_MOTION_DDOT":0},{"OBJECT_NAME":"BRO-18","OBJECT_ID":"2025-135Y","EPOCH":"2026-07-14T22:17:13.644960","CLASSIFICATION_TYPE":"U","MEAN_MOTION":15.22172654,"ECCENTRICITY":0.00024759,"INCLINATION":97.4656,"RA_OF_ASC_NODE":310.7483,"ARG_OF_PERICENTER":116.3365,"MEAN_ANOMALY":243.8126,"EPHEMERIS_TYPE":0,"NORAD_CAT_ID":64550,"ELEMENT_SET_NO":999,"REV_AT_EPOCH":5909,"BSTAR":0.00011961744,"MEAN_MOTION_DOT":0.00002674,"MEAN_MOTION_DDOT":0},{"OBJECT_NAME":"BRO-17","OBJECT_ID":"2025-276G","EPOCH":"2026-07-14T17:38:01.596480","CLASSIFICATION_TYPE":"U","MEAN_MOTION":15.18156225,"ECCENTRICITY":0.00050954,"INCLINATION":97.4184,"RA_OF_ASC_NODE":268.3115,"ARG_OF_PERICENTER":261.4212,"MEAN_ANOMALY":98.6445,"EPHEMERIS_TYPE":0,"NORAD_CAT_ID":66672,"ELEMENT_SET_NO":999,"REV_AT_EPOCH":3457,"BSTAR":0.000099231832,"MEAN_MOTION_DOT":0.0000196,"MEAN_MOTION_DDOT":0},{"OBJECT_NAME":"BRO-20","OBJECT_ID":"2025-276J","EPOCH":"2026-07-14T21:48:16.221312","CLASSIFICATION_TYPE":"U","MEAN_MOTION":15.18324102,"ECCENTRICITY":0.0004706,"INCLINATION":97.4162,"RA_OF_ASC_NODE":268.47,"ARG_OF_PERICENTER":264.529,"MEAN_ANOMALY":95.5408,"EPHEMERIS_TYPE":0,"NORAD_CAT_ID":66674,"ELEMENT_SET_NO":999,"REV_AT_EPOCH":3460,"BSTAR":0.00007841087,"MEAN_MOTION_DOT":0.00001542,"MEAN_MOTION_DDOT":0},{"OBJECT_NAME":"BRO-19","OBJECT_ID":"2026-067G","EPOCH":"2026-07-14T20:24:26.603424","CLASSIFICATION_TYPE":"U","MEAN_MOTION":15.18986318,"ECCENTRICITY":0.00025766,"INCLINATION":97.4493,"RA_OF_ASC_NODE":153.9148,"ARG_OF_PERICENTER":108.3967,"MEAN_ANOMALY":251.7548,"EPHEMERIS_TYPE":0,"NORAD_CAT_ID":68422,"ELEMENT_SET_NO":999,"REV_AT_EPOCH":1614,"BSTAR":0.000086470048,"MEAN_MOTION_DOT":0.00001741,"MEAN_MOTION_DDOT":0},{"OBJECT_NAME":"BRO-21","OBJECT_ID":"2026-100AD","EPOCH":"2026-07-14T16:20:13.684416","CLASSIFICATION_TYPE":"U","MEAN_MOTION":15.21620582,"ECCENTRICITY":0.00067992,"INCLINATION":97.4012,"RA_OF_ASC_NODE":93.1243,"ARG_OF_PERICENTER":331.1353,"MEAN_ANOMALY":28.9506,"EPHEMERIS_TYPE":0,"NORAD_CAT_ID":69007,"ELEMENT_SET_NO":999,"REV_AT_EPOCH":1098,"BSTAR":0.00006166811,"MEAN_MOTION_DOT":0.00001324,"MEAN_MOTION_DDOT":0},{"OBJECT_NAME":"BRO-22","OBJECT_ID":"2026-132C","EPOCH":"2026-07-14T10:34:12.901440","CLASSIFICATION_TYPE":"U","MEAN_MOTION":14.99803811,"ECCENTRICITY":0.00165405,"INCLINATION":97.683,"RA_OF_ASC_NODE":258.771,"ARG_OF_PERICENTER":183.6595,"MEAN_ANOMALY":176.451,"EPHEMERIS_TYPE":0,"NORAD_CAT_ID":69504,"ELEMENT_SET_NO":999,"REV_AT_EPOCH":486,"BSTAR":0.000060382774,"MEAN_MOTION_DOT":0.00000689,"MEAN_MOTION_DDOT":0}]}
